[{"OBJECT_NAME":"PRAETORIAN SDA_616","OBJECT_ID":"2025-203Q","EPOCH":"2026-03-09T14:26:34.985184","MEAN_MOTION":13.83297626,"ECCENTRICITY":0.0006714,"INCLINATION":81.3034,"RA_OF_ASC_NODE":103.134,"ARG_OF_PERICENTER":111.2959,"MEAN_ANOMALY":248.8915,"EPHEMERIS_TYPE":0,"CLASSIFICATION_TYPE":"U","NORAD_CAT_ID":65579,"ELEMENT_SET_NO":999,"REV_AT_EPOCH":2491,"BSTAR":0.00014695,"MEAN_MOTION_DOT":1.73e-6,"MEAN_MOTION_DDOT":0},{"OBJECT_NAME":"SL-8 DEB","OBJECT_ID":"1991-007C","EPOCH":"2026-03-09T12:35:40.547904","MEAN_MOTION":13.80985699,"ECCENTRICITY":0.00285372,"INCLINATION":82.9346,"RA_OF_ASC_NODE":357.4974,"ARG_OF_PERICENTER":19.519,"MEAN_ANOMALY":34.994,"EPHEMERIS_TYPE":0,"CLASSIFICATION_TYPE":"U","NORAD_CAT_ID":21091,"ELEMENT_SET_NO":999,"REV_AT_EPOCH":76537,"BSTAR":0.0003087068,"MEAN_MOTION_DOT":3.42e-6,"MEAN_MOTION_DDOT":0}]
